GOES 10                 
1 24786U 97019A   10088.44400128 -.00000297  00000-0  10000-3 0  3877
2 24786   4.2289  69.5791 0004751  11.7073  56.6152  0.99074823 47353
SARSAT 7 (NOAA 15)      
1 25338U 98030A   10088.23903888 -.00000089  00000-0 -19620-4 0  3208
2 25338  98.6136  76.6189 0009893 311.7761  48.2574 14.24813978617368
GOES 11                 
1 26352U 00022A   10088.53284383  .00000072  00000-0  10000-3 0  7659
2 26352   0.2273  84.2353 0001174 276.9665 241.9676  1.00278192 36265
SARSAT 8 (NOAA 16)      
1 26536U 00055A   10088.25624743 -.00000109  00000-0 -33546-4 0  7964
2 26536  99.1753 103.8266 0010215 197.4503 162.6357 14.12550238490545
GPS BIIR-07 (DASS)      
1 26690U 01004A   10087.61027552 -.00000019  00000-0  10000-3 0  6523
2 26690  53.7529 267.9815 0111935 226.3627 132.6850  2.00562977 67132
GOES 12                 
1 26871U 01031A   10088.48846065 -.00000269  00000-0  00000+0 0  5024
2 26871   0.3582  85.9777 0003384 317.3960 244.9116  1.00273778 31864
SARSAT 9 (NOAA 17)      
1 27453U 02032A   10088.25434804  .00000191  00000-0  10101-3 0  8025
2 27453  98.4406 141.8837 0012019  16.0648 344.0924 14.24143694403320
MSG-1                   
1 27509U 02040B   10088.09770318  .00000046  00000-0  10000-3 0  4743
2 27509   0.5406  31.1437 0000451 114.4185  85.2872  1.00276280 27853
GPS BIIR-08 (DASS)      
1 27663U 03005A   10087.96265690  .00000034  00000-0  10000-3 0   331
2 27663  55.6599  88.1176 0059588 343.2222  16.6027  2.00557317 52491
INSAT 3A                
1 27714U 03013A   10087.63676819 -.00000275  00000-0  10000-3 0   596
2 27714   0.0247 275.1205 0004946  47.4151 186.1142  1.00270128 25554
GPS BIIR-11 (DASS)      
1 28190U 04009A   10088.10269673  .00000042  00000-0  10000-3 0  4887
2 28190  54.8763 151.0362 0063060 347.7061  12.2176  2.00559351 44160
GPS BIIR-12 (DASS)      
1 28361U 04023A   10087.89378503 -.00000067  00000-0  10000-3 0  3114
2 28361  55.4861 327.0709 0064451 174.2689 185.8595  2.00559448 42246
GPS BIIR-13 (DASS)      
1 28474U 04045A   10088.39220516 -.00000017  00000-0  10000-3 0  1932
2 28474  53.8648 205.7130 0094502 172.8744 187.2198  2.00549143 39615
SARSAT 10 (NOAA 18)     
1 28654U 05018A   10088.33256915  .00000356  00000-0  22153-3 0  2869
2 28654  98.9419  34.8545 0013531 279.5398  80.4240 14.11341999250177
GPS IIR-14M (DASS)      
1 28874U 05038A   10088.24260793  .00000046  00000-0  10000-3 0  4556
2 28874  55.0126 147.8652 0053265 216.2672 143.4479  2.00574914 33033
MSG-2                   
1 28912U 05049B   10088.05310370 -.00000017  00000-0  00000+0 0  6373
2 28912   0.2523  77.8870 0001230 283.5556 204.3662  1.00280669 15701
GOES 13                 
1 29155U 06018A   10088.35572069 -.00000224  00000-0  99999-4 0   383
2 29155   0.3455 266.6786 0002346 228.3688  91.5694  1.00400582 14115
SARSAT 11 (METOP-A)     
1 29499U 06044A   10088.74586536 -.00000132  00000-0 -40532-4 0   715
2 29499  98.6806 149.5931 0001036 120.8959 239.2298 14.21500428178589
GPS IIR-16M (DASS)      
1 29601U 06052A   10087.29954713  .00000040  00000-0  10000-3 0  8264
2 29601  55.5859  87.1479 0036147 326.5126  33.2872  2.00556936 24624
GPS IIR-17M (DASS)      
1 32260U 07047A   10087.59795278 -.00000065  00000-0  00000+0 0  5604
2 32260  54.6752 325.6948 0024820 341.3790  18.5763  2.00556520 18020
GPS IIR-18M (DASS)      
1 32384U 07062A   10087.42391916  .00000043  00000-0  10000-3 0  5869
2 32384  55.0267 148.3674 0032720 284.0593  75.6579  2.00551197 16742
SARSAT 12 (NOAA 19)     
1 33591U 09005A   10088.30326521  .00000006  00000-0  27251-4 0  4851
2 33591  98.7821  32.1483 0014424 152.0899 208.1052 14.11038210 58640
COSPAS C11 (STERKH 1)   
1 35636U 09039B   10088.40380304  .00000138  00000-0  10000-3 0  2363
2 35636  82.9574 196.2584 0018449 279.1231  80.7832 13.89448136 34884
COSPAS C12 (STERKH 2)   
1 35866U 09049B   10088.76076090  .00000178  00000-0  10000-3 0  1770
2 35866  98.7687 143.2617 0002550 222.6834 137.4133 14.22313731 27444
